{
  "type": "FeatureCollection",
  "features": [
    {
      "type": "Feature",
      "properties": {
        "norad_id": 28890,
        "name": "BEIJING 1",
        "group": "dmc",
        "lat": -40.81849223098363,
        "lon": -63.984965542559145,
        "alt_km": 691.9742156772318,
        "timestamp": "2025-12-21T16:47:54.395509+00:00",
        "meta_object_name": "BEIJING 1",
        "meta_object_id": "2005-043A",
        "meta_epoch": "2025-12-21T12:30:35.871264",
        "meta_mean_motion": 14.63373377,
        "meta_eccentricity": 0.0015748,
        "meta_inclination": 98.266,
        "meta_ra_of_asc_node": 123.0494,
        "meta_arg_of_pericenter": 115.4087,
        "meta_mean_anomaly": 244.8747,
        "meta_ephemeris_type": 0,
        "meta_classification_type": "U",
        "meta_norad_cat_id": 28890,
        "meta_element_set_no": 999,
        "meta_rev_at_epoch": 7466,
        "meta_bstar": 5.709e-05,
        "meta_mean_motion_dot": 2.47e-06,
        "meta_mean_motion_ddot": 0,
        "tle_line1": "1 28890U 05043A   25355.52124851  .00000247  00000+0  57090-4 0  9994",
        "tle_line2": "2 28890  98.2660 123.0494 0015748 115.4087 244.8747 14.63373377 74667"
      },
      "geometry": {
        "type": "Point",
        "coordinates": [
          -63.984965542559145,
          -40.81849223098363
        ]
      }
    },
    {
      "type": "Feature",
      "properties": {
        "norad_id": 33320,
        "name": "HUANJING 1A (HJ-1A)",
        "group": "dmc",
        "lat": 6.334069662787776,
        "lon": 164.47947387244594,
        "alt_km": 634.0377543342538,
        "timestamp": "2025-12-21T16:47:54.395533+00:00",
        "meta_object_name": "HUANJING 1A (HJ-1A)",
        "meta_object_id": "2008-041A",
        "meta_epoch": "2025-12-21T12:46:53.056992",
        "meta_mean_motion": 14.83419986,
        "meta_eccentricity": 0.0019504,
        "meta_inclination": 97.6537,
        "meta_ra_of_asc_node": 343.4638,
        "meta_arg_of_pericenter": 6.6276,
        "meta_mean_anomaly": 353.5192,
        "meta_ephemeris_type": 0,
        "meta_classification_type": "U",
        "meta_norad_cat_id": 33320,
        "meta_element_set_no": 999,
        "meta_rev_at_epoch": 93206,
        "meta_bstar": 0.00017555,
        "meta_mean_motion_dot": 1.394e-05,
        "meta_mean_motion_ddot": 0,
        "tle_line1": "1 33320U 08041A   25355.53255853  .00001394  00000+0  17555-3 0  9992",
        "tle_line2": "2 33320  97.6537 343.4638 0019504   6.6276 353.5192 14.83419986932068"
      },
      "geometry": {
        "type": "Point",
        "coordinates": [
          164.47947387244594,
          6.334069662787776
        ]
      }
    },
    {
      "type": "Feature",
      "properties": {
        "norad_id": 33321,
        "name": "HUANJING 1B (HJ-1B)",
        "group": "dmc",
        "lat": 15.514840648203439,
        "lon": -14.83763545632154,
        "alt_km": 598.4836099002096,
        "timestamp": "2025-12-21T16:47:54.395547+00:00",
        "meta_object_name": "HUANJING 1B (HJ-1B)",
        "meta_object_id": "2008-041B",
        "meta_epoch": "2025-12-21T13:29:22.014240",
        "meta_mean_motion": 14.82843533,
        "meta_eccentricity": 0.0038015,
        "meta_inclination": 97.6397,
        "meta_ra_of_asc_node": 347.166,
        "meta_arg_of_pericenter": 47.8528,
        "meta_mean_anomaly": 312.5905,
        "meta_ephemeris_type": 0,
        "meta_classification_type": "U",
        "meta_norad_cat_id": 33321,
        "meta_element_set_no": 999,
        "meta_rev_at_epoch": 93208,
        "meta_bstar": 0.00014145,
        "meta_mean_motion_dot": 1.108e-05,
        "meta_mean_motion_ddot": 0,
        "tle_line1": "1 33321U 08041B   25355.56206035  .00001108  00000+0  14145-3 0  9999",
        "tle_line2": "2 33321  97.6397 347.1660 0038015  47.8528 312.5905 14.82843533932081"
      },
      "geometry": {
        "type": "Point",
        "coordinates": [
          -14.83763545632154,
          15.514840648203439
        ]
      }
    },
    {
      "type": "Feature",
      "properties": {
        "norad_id": 33446,
        "name": "YAOGAN-4",
        "group": "dmc",
        "lat": -74.50861462376015,
        "lon": -44.14005272679712,
        "alt_km": 619.0679150840588,
        "timestamp": "2025-12-21T16:47:54.395559+00:00",
        "meta_object_name": "YAOGAN-4",
        "meta_object_id": "2008-061A",
        "meta_epoch": "2025-12-21T09:02:40.964064",
        "meta_mean_motion": 14.8270568,
        "meta_eccentricity": 0.0013066,
        "meta_inclination": 97.9195,
        "meta_ra_of_asc_node": 285.3917,
        "meta_arg_of_pericenter": 292.927,
        "meta_mean_anomaly": 67.0564,
        "meta_ephemeris_type": 0,
        "meta_classification_type": "U",
        "meta_norad_cat_id": 33446,
        "meta_element_set_no": 999,
        "meta_rev_at_epoch": 91931,
        "meta_bstar": 0.00013803,
        "meta_mean_motion_dot": 1.061e-05,
        "meta_mean_motion_ddot": 0,
        "tle_line1": "1 33446U 08061A   25355.37686301  .00001061  00000+0  13803-3 0  9994",
        "tle_line2": "2 33446  97.9195 285.3917 0013066 292.9270  67.0564 14.82705680919316"
      },
      "geometry": {
        "type": "Point",
        "coordinates": [
          -44.14005272679712,
          -74.50861462376015
        ]
      }
    },
    {
      "type": "Feature",
      "properties": {
        "norad_id": 35681,
        "name": "DEIMOS-1",
        "group": "dmc",
        "lat": 15.825993919813657,
        "lon": -21.91209429552338,
        "alt_km": 646.2882824899662,
        "timestamp": "2025-12-21T16:47:54.395570+00:00",
        "meta_object_name": "DEIMOS-1",
        "meta_object_id": "2009-041A",
        "meta_epoch": "2025-12-21T12:48:05.851584",
        "meta_mean_motion": 14.74963577,
        "meta_eccentricity": 0.0002576,
        "meta_inclination": 97.7145,
        "meta_ra_of_asc_node": 155.7271,
        "meta_arg_of_pericenter": 65.7085,
        "meta_mean_anomaly": 294.4393,
        "meta_ephemeris_type": 0,
        "meta_classification_type": "U",
        "meta_norad_cat_id": 35681,
        "meta_element_set_no": 999,
        "meta_rev_at_epoch": 88069,
        "meta_bstar": 3.6668e-05,
        "meta_mean_motion_dot": 1.99e-06,
        "meta_mean_motion_ddot": 0,
        "tle_line1": "1 35681U 09041A   25355.53340106  .00000199  00000+0  36668-4 0  9990",
        "tle_line2": "2 35681  97.7145 155.7271 0002576  65.7085 294.4393 14.74963577880695"
      },
      "geometry": {
        "type": "Point",
        "coordinates": [
          -21.91209429552338,
          15.825993919813657
        ]
      }
    },
    {
      "type": "Feature",
      "properties": {
        "norad_id": 35683,
        "name": "UK-DMC 2",
        "group": "dmc",
        "lat": -20.631571369966995,
        "lon": -52.63006886677934,
        "alt_km": 648.7257104334531,
        "timestamp": "2025-12-21T16:47:54.395581+00:00",
        "meta_object_name": "UK-DMC 2",
        "meta_object_id": "2009-041C",
        "meta_epoch": "2025-12-21T12:38:13.106976",
        "meta_mean_motion": 14.75637577,
        "meta_eccentricity": 0.0001543,
        "meta_inclination": 97.8565,
        "meta_ra_of_asc_node": 130.1815,
        "meta_arg_of_pericenter": 93.3505,
        "meta_mean_anomaly": 266.7881,
        "meta_ephemeris_type": 0,
        "meta_classification_type": "U",
        "meta_norad_cat_id": 35683,
        "meta_element_set_no": 999,
        "meta_rev_at_epoch": 88036,
        "meta_bstar": 6.8995e-05,
        "meta_mean_motion_dot": 4.22e-06,
        "meta_mean_motion_ddot": 0,
        "tle_line1": "1 35683U 09041C   25355.52654059  .00000422  00000+0  68995-4 0  9993",
        "tle_line2": "2 35683  97.8565 130.1815 0001543  93.3505 266.7881 14.75637577880369"
      },
      "geometry": {
        "type": "Point",
        "coordinates": [
          -52.63006886677934,
          -20.631571369966995
        ]
      }
    },
    {
      "type": "Feature",
      "properties": {
        "norad_id": 40715,
        "name": "DMC3-FM1",
        "group": "dmc",
        "lat": -25.548473301862064,
        "lon": 38.87233482915708,
        "alt_km": 617.266042528523,
        "timestamp": "2025-12-21T16:47:54.395592+00:00",
        "meta_object_name": "DMC3-FM1",
        "meta_object_id": "2015-032A",
        "meta_epoch": "2025-12-21T12:38:29.721696",
        "meta_mean_motion": 14.85453827,
        "meta_eccentricity": 0.0004113,
        "meta_inclination": 97.6688,
        "meta_ra_of_asc_node": 222.3984,
        "meta_arg_of_pericenter": 284.7831,
        "meta_mean_anomaly": 75.2928,
        "meta_ephemeris_type": 0,
        "meta_classification_type": "U",
        "meta_norad_cat_id": 40715,
        "meta_element_set_no": 999,
        "meta_rev_at_epoch": 56353,
        "meta_bstar": 9.0559e-05,
        "meta_mean_motion_dot": 7.29e-06,
        "meta_mean_motion_ddot": 0,
        "tle_line1": "1 40715U 15032A   25355.52673289  .00000729  00000+0  90559-4 0  9999",
        "tle_line2": "2 40715  97.6688 222.3984 0004113 284.7831  75.2928 14.85453827563537"
      },
      "geometry": {
        "type": "Point",
        "coordinates": [
          38.87233482915708,
          -25.548473301862064
        ]
      }
    },
    {
      "type": "Feature",
      "properties": {
        "norad_id": 40716,
        "name": "DMC3-FM2",
        "group": "dmc",
        "lat": 81.14716702729,
        "lon": 164.04410553719873,
        "alt_km": 607.6492752378508,
        "timestamp": "2025-12-21T16:47:54.395602+00:00",
        "meta_object_name": "DMC3-FM2",
        "meta_object_id": "2015-032B",
        "meta_epoch": "2025-12-21T13:10:52.271040",
        "meta_mean_motion": 14.85457095,
        "meta_eccentricity": 0.0004655,
        "meta_inclination": 97.6747,
        "meta_ra_of_asc_node": 223.8703,
        "meta_arg_of_pericenter": 292.0324,
        "meta_mean_anomaly": 68.0397,
        "meta_ephemeris_type": 0,
        "meta_classification_type": "U",
        "meta_norad_cat_id": 40716,
        "meta_element_set_no": 999,
        "meta_rev_at_epoch": 56353,
        "meta_bstar": 9.4756e-05,
        "meta_mean_motion_dot": 7.66e-06,
        "meta_mean_motion_ddot": 0,
        "tle_line1": "1 40716U 15032B   25355.54921610  .00000766  00000+0  94756-4 0  9990",
        "tle_line2": "2 40716  97.6747 223.8703 0004655 292.0324  68.0397 14.85457095563530"
      },
      "geometry": {
        "type": "Point",
        "coordinates": [
          164.04410553719873,
          81.14716702729
        ]
      }
    },
    {
      "type": "Feature",
      "properties": {
        "norad_id": 40717,
        "name": "DMC3-FM3",
        "group": "dmc",
        "lat": -30.18763316668844,
        "lon": -129.84285717537742,
        "alt_km": 615.9139364170369,
        "timestamp": "2025-12-21T16:47:54.395612+00:00",
        "meta_object_name": "DMC3-FM3",
        "meta_object_id": "2015-032C",
        "meta_epoch": "2025-12-21T13:42:07.178688",
        "meta_mean_motion": 14.85439757,
        "meta_eccentricity": 0.0004085,
        "meta_inclination": 97.6802,
        "meta_ra_of_asc_node": 225.5303,
        "meta_arg_of_pericenter": 293.506,
        "meta_mean_anomaly": 66.5726,
        "meta_ephemeris_type": 0,
        "meta_classification_type": "U",
        "meta_norad_cat_id": 40717,
        "meta_element_set_no": 999,
        "meta_rev_at_epoch": 56354,
        "meta_bstar": -1.848e-05,
        "meta_mean_motion_dot": -2.11e-06,
        "meta_mean_motion_ddot": 0,
        "tle_line1": "1 40717U 15032C   25355.57091642 -.00000211  00000+0 -18480-4 0  9994",
        "tle_line2": "2 40717  97.6802 225.5303 0004085 293.5060  66.5726 14.85439757563543"
      },
      "geometry": {
        "type": "Point",
        "coordinates": [
          -129.84285717537742,
          -30.18763316668844
        ]
      }
    }
  ]
}